0 OPS 6381 (SSU 1)
1 07937U 75051C   13281.66754437  .00000021  00000-0  16302-3 0   169
2 07937 095.0805 303.5170 0005478 320.0079 154.7654 12.68102411774151
0 OPS 6381 (SSU 1)
1 07937U 75051C   13283.79198177  .00000058  00000-0  35498-3 0   176
2 07937 095.0802 304.4564 0005402 313.8854 134.2062 12.68102372774425
0 OPS 6381 (SSU 1)
1 07937U 75051C   13285.85120609  .00000051  00000-0  31436-3 0   182
2 07937 095.0797 305.3669 0005370 307.7272 176.1288 12.68102637774681
0 OPS 6381 (SSU 1)
1 07937U 75051C   13288.13162025  .00000021  00000-0  16193-3 0   195
2 07937 095.0793 306.3750 0005324 300.9412 147.9175 12.68103124774974
0 OPS 6381 (SSU 1)
1 07937U 75051C   13290.66251227  .00000009  00000-0  98873-4 0   203
2 07937 095.0791 307.4935 0005291 293.1987 183.5406 12.68103586775293
0 OPS 6381 (SSU 1)
1 07937U 75051C   13292.71250977  .00000018  00000-0  14829-3 0   211
2 07937 095.0792 308.3993 0005282 287.0198 183.3921 12.68103504775553
0 OPS 6381 (SSU 1)
1 07937U 75051C   13294.84551049  .00000033  00000-0  22544-3 0   222
2 07937 095.0793 309.3419 0005285 280.5483 202.2616 12.68103485775826
